NORAD_CAT_ID,OBJECT_NAME,OBJECT_TYPE,EPOCH,MEAN_MOTION,ECCENTRICITY,INCLINATION,RA_OF_ASC_NODE,ARG_OF_PERICENTER,MEAN_ANOMALY,BSTAR,MEAN_MOTION_DOT,MEAN_MOTION_DDOT,TLE_LINE0,TLE_LINE1,TLE_LINE2,SEMIMAJOR_AXIS,PERIOD,APOGEE,PERIGEE,DECAYED
55653.0,STARLINK-5067,PAYLOAD,2023-11-10 00:31:13,14.98345984,0.0003137,70.0008,169.129,271.4379,88.642,0.00084491,0.00010007,0.0,0 STARLINK-5067,1 55653U 23021AB  23314.02168208  .00010007  00000-0  84491-3 0  9999,2 55653  70.0008 169.1290 0003137 271.4379  88.6420 14.98345984 41071,6950.143,96.106,574.189,569.828,0.0
55653.0,STARLINK-5067,PAYLOAD,2023-11-10 14:56:25,14.98351714,0.0003076,70.0008,167.6141,271.6493,88.4313,0.00061394,7.244e-05,0.0,0 STARLINK-5067,1 55653U 23021AB  23314.62251559  .00007244  00000-0  61394-3 0  9993,2 55653  70.0008 167.6141 0003076 271.6493  88.4313 14.98351714 41460,6950.126,96.106,574.129,569.853,0.0
55653.0,STARLINK-5067,PAYLOAD,2023-11-10 21:20:57,14.98354815,0.000307,70.0007,166.9407,271.8351,88.2456,0.00056048,6.605e-05,0.0,0 STARLINK-5067,1 55653U 23021AB  23314.88955103  .00006605  00000-0  56048-3 0  9997,2 55653  70.0007 166.9407 0003070 271.8351  88.2456 14.98354815 41501,6950.116,96.105,574.115,569.847,0.0
55653.0,STARLINK-5067,PAYLOAD,2023-11-11 00:33:13,14.98356945,0.0003068,70.0006,166.6041,271.9456,88.1352,0.00057024,6.722e-05,0.0,0 STARLINK-5067,1 55653U 23021AB  23315.02306864  .00006722  00000-0  57024-3 0  9993,2 55653  70.0006 166.6041 0003068 271.9456  88.1352 14.98356945 41224,6950.11,96.105,574.107,569.842,0.0
55653.0,STARLINK-5067,PAYLOAD,2023-11-11 13:22:17,14.98344331,0.0002505,70.002,165.2604,260.0734,100.0142,2.4188e-05,1.96e-06,0.0,0 STARLINK-5067,1 55653U 23021AB  23315.55714677  .00000196  00000-0  24188-4 0  9991,2 55653  70.0020 165.2604 0002505 260.0734 100.0142 14.98344331 41602,6950.149,96.106,573.755,570.273,0.0
55653.0,STARLINK-5067,PAYLOAD,2023-11-11 19:46:49,14.98339673,0.000267,70.0011,164.5857,267.1358,92.9495,-1.6191e-06,-1.12e-06,0.0,0 STARLINK-5067,1 55653U 23021AB  23315.82418889 -.00000112  00000-0 -16191-5 0  9993,2 55653  70.0011 164.5857 0002670 267.1358  92.9495 14.98339673 41341,6950.163,96.106,573.884,570.172,0.0
55653.0,STARLINK-5067,PAYLOAD,2023-11-11 21:22:58,14.9833631,0.0002702,69.9999,164.417,267.9225,92.1624,1.8085e-05,1.23e-06,0.0,0 STARLINK-5067,1 55653U 23021AB  23315.89095371  .00000123  00000-0  18085-4 0  9990,2 55653  69.9999 164.4170 0002702 267.9225  92.1624 14.98336310 41652,6950.173,96.107,573.916,570.16,0.0
55653.0,STARLINK-5067,PAYLOAD,2023-11-12 06:59:46,14.98334352,0.0002706,69.9998,163.4068,269.2539,90.831,3.2884e-06,-5.4e-07,0.0,0 STARLINK-5067,1 55653U 23021AB  23316.29151337 -.00000054  00000-0  32884-5 0  9998,2 55653  69.9998 163.4068 0002706 269.2539  90.8310 14.98334352 41418,6950.179,96.107,573.925,570.164,0.0
55653.0,STARLINK-5067,PAYLOAD,2023-11-12 21:24:58,14.98338291,0.0002658,69.9998,161.8915,262.8357,97.25,-2.5188e-05,-3.94e-06,0.0,0 STARLINK-5067,1 55653U 23021AB  23316.89234687 -.00000394  00000-0 -25188-4 0  9990,2 55653  69.9998 161.8915 0002658 262.8357  97.2500 14.98338291 41805,6950.167,96.106,573.88,570.185,0.0
55653.0,STARLINK-5067,PAYLOAD,2023-11-12 23:01:06,14.98338829,0.0002766,69.9995,161.7235,268.552,91.5322,-5.3306e-05,-7.29e-06,0.0,0 STARLINK-5067,1 55653U 23021AB  23316.95910680 -.00000729  00000-0 -53306-4 0  9996,2 55653  69.9995 161.7235 0002766 268.5520  91.5322 14.98338829 41818,6950.166,96.106,573.953,570.108,0.0
55653.0,STARLINK-5067,PAYLOAD,2023-11-14 07:03:48,14.98331541,0.0002905,69.9991,158.3566,270.3234,89.7592,5.8553e-05,6.06e-06,0.0,0 STARLINK-5067,1 55653U 23021AB  23318.29430571  .00000606  00000-0  58553-4 0  9992,2 55653  69.9991 158.3566 0002905 270.3234  89.7592 14.98331541 41712,6950.188,96.107,574.072,570.034,0.0
55653.0,STARLINK-5067,PAYLOAD,2023-11-14 13:28:20,14.98329675,0.0002878,69.9991,157.6834,269.9679,90.115,3.1328e-05,2.81e-06,0.0,0 STARLINK-5067,1 55653U 23021AB  23318.56134752  .00000281  00000-0  31328-4 0  9994,2 55653  69.9991 157.6834 0002878 269.9679  90.1150 14.98329675 42057,6950.194,96.107,574.059,570.059,0.0
55653.0,STARLINK-5067,PAYLOAD,2023-11-14 19:52:52,14.98331674,0.0002888,69.9991,157.0099,269.7623,90.3205,2.5061e-05,2.06e-06,0.0,0 STARLINK-5067,1 55653U 23021AB  23318.82838627  .00000206  00000-0  25061-4 0  9999,2 55653  69.9991 157.0099 0002888 269.7623  90.3205 14.98331674 42091,6950.188,96.107,574.06,570.046,0.0
55653.0,STARLINK-5067,PAYLOAD,2023-11-15 13:30:21,14.98330272,0.0002776,69.9988,155.158,269.8943,90.1898,5.7521e-05,5.93e-06,0.0,0 STARLINK-5067,1 55653U 23021AB  23319.56274532  .00000593  00000-0  57521-4 0  9995,2 55653  69.9988 155.1580 0002776 269.8943  90.1898 14.98330272 42205,6950.192,96.107,573.986,570.128,0.0
55653.0,STARLINK-5067,PAYLOAD,2023-11-15 19:54:53,14.98332064,0.0002808,69.9989,154.4849,270.0802,90.0035,7.9082e-05,8.51e-06,0.0,0 STARLINK-5067,1 55653U 23021AB  23319.82978348  .00000851  00000-0  79082-4 0  9993,2 55653  69.9989 154.4849 0002808 270.0802  90.0035 14.98332064 41943,6950.187,96.107,574.003,570.1,0.0
55653.0,STARLINK-5067,PAYLOAD,2023-11-16 11:56:14,14.98330661,0.0002802,69.999,152.8018,270.3592,89.7246,5.1287e-05,5.19e-06,0.0,0 STARLINK-5067,1 55653U 23021AB  23320.49738478  .00000519  00000-0  51287-4 0  9994,2 55653  69.9990 152.8018 0002802 270.3592  89.7246 14.98330661 42343,6950.191,96.107,574.003,570.108,0.0
55653.0,STARLINK-5067,PAYLOAD,2023-11-16 19:56:54,14.98330785,0.0002805,69.9989,151.9601,270.4109,89.6729,4.5125e-05,4.45e-06,0.0,0 STARLINK-5067,1 55653U 23021AB  23320.83118453  .00000445  00000-0  45125-4 0  9999,2 55653  69.9989 151.9601 0002805 270.4109  89.6729 14.98330785 42091,6950.19,96.107,574.005,570.106,0.0
55653.0,STARLINK-5067,PAYLOAD,2023-11-17 13:34:22,14.9833258,0.0002851,69.9988,150.1085,271.1151,88.9681,3.3039e-05,3.01e-06,0.0,0 STARLINK-5067,1 55653U 23021AB  23321.56554343  .00000301  00000-0  33039-4 0  9994,2 55653  69.9988 150.1085 0002851 271.1151  88.9681 14.98332580 42503,6950.185,96.107,574.031,570.068,0.0
55653.0,STARLINK-5067,PAYLOAD,2023-11-17 23:11:11,14.98332903,0.0002853,69.9988,149.0986,271.234,88.8492,3.3195e-05,3.03e-06,0.0,0 STARLINK-5067,1 55653U 23021AB  23321.96610248  .00000303  00000-0  33195-4 0  9990,2 55653  69.9988 149.0986 0002853 271.2340  88.8492 14.98332903 42264,6950.184,96.107,574.032,570.066,0.0
55653.0,STARLINK-5067,PAYLOAD,2023-11-18 05:35:43,14.98330755,0.0002834,69.9987,148.4252,271.9293,88.1542,3.2524e-05,2.95e-06,0.0,0 STARLINK-5067,1 55653U 23021AB  23322.23314397  .00000295  00000-0  32524-4 0  9992,2 55653  69.9987 148.4252 0002834 271.9293  88.1542 14.98330755 42605,6950.191,96.107,574.025,570.086,0.0
55653.0,STARLINK-5067,PAYLOAD,2023-11-19 05:37:45,14.98313183,0.000445,69.9985,145.9006,265.3935,94.6716,-0.00013717,-1.729e-05,0.0,0 STARLINK-5067,1 55653U 23021AB  23323.23455992 -.00001729  00000-0 -13717-3 0  9997,2 55653  69.9985 145.9006 0004450 265.3935  94.6716 14.98313183 42452,6950.245,96.108,575.203,569.017,0.0
55653.0,STARLINK-5067,PAYLOAD,2023-11-19 13:38:26,14.98319381,0.0003117,69.9983,145.0589,268.8348,91.2453,-5.8445e-05,-7.9e-06,0.0,0 STARLINK-5067,1 55653U 23021AB  23323.56836320 -.00000790  00000-0 -58445-4 0  9996,2 55653  69.9983 145.0589 0003117 268.8348  91.2453 14.98319381 42808,6950.226,96.108,574.257,569.924,0.0
55653.0,STARLINK-5067,PAYLOAD,2023-11-19 20:02:58,14.98324159,0.0002921,69.9982,144.3853,268.0712,92.0112,7.1556e-06,-8e-08,0.0,0 STARLINK-5067,1 55653U 23021AB  23323.83540084 -.00000008  00000-0  71556-5 0  9995,2 55653  69.9982 144.3853 0002921 268.0712  92.0112 14.98324159 42543,6950.211,96.107,574.106,570.046,0.0
55653.0,STARLINK-5067,PAYLOAD,2023-11-19 21:39:06,14.98323269,0.0002631,69.9982,144.2169,262.3478,97.7382,1.8438e-05,1.27e-06,0.0,0 STARLINK-5067,1 55653U 23021AB  23323.90216113  .00000127  00000-0  18438-4 0  9996,2 55653  69.9982 144.2169 0002631 262.3478  97.7382 14.98323269 42852,6950.214,96.107,573.907,570.25,0.0
55653.0,STARLINK-5067,PAYLOAD,2023-11-20 05:39:46,14.98347321,0.0003017,69.9983,143.3755,267.6781,92.4033,-0.00035401,-4.316e-05,0.0,0 STARLINK-5067,1 55653U 23021AB  23324.23595643 -.00004316  00000-0 -35401-3 0  9995,2 55653  69.9983 143.3755 0003017 267.6781  92.4033 14.98347321 42601,6950.139,96.106,574.101,569.907,0.0
55653.0,STARLINK-5067,PAYLOAD,2023-11-20 13:40:27,14.98319159,0.0003,69.9983,142.534,266.8258,93.2558,0.00025761,2.981e-05,0.0,0 STARLINK-5067,1 55653U 23021AB  23324.56976244  .00002981  00000-0  25761-3 0  9993,2 55653  69.9983 142.5340 0003000 266.8258  93.2558 14.98319159 42951,6950.226,96.108,574.176,570.006,0.0
55653.0,STARLINK-5067,PAYLOAD,2023-11-20 20:04:59,14.98329166,0.0002972,69.9985,141.8608,267.0764,93.0055,0.00015972,1.813e-05,0.0,0 STARLINK-5067,1 55653U 23021AB  23324.83680279  .00001813  00000-0  15972-3 0  9999,2 55653  69.9985 141.8608 0002972 267.0764  93.0055 14.98329166 42694,6950.195,96.107,574.126,569.995,0.0
55653.0,STARLINK-5067,PAYLOAD,2023-11-20 21:41:07,14.98329635,0.0002972,69.9985,141.6925,267.0837,92.9982,0.00016303,1.853e-05,0.0,0 STARLINK-5067,1 55653U 23021AB  23324.90356237  .00001853  00000-0  16303-3 0  9994,2 55653  69.9985 141.6925 0002972 267.0837  92.9982 14.98329635 43009,6950.194,96.107,574.125,569.993,0.0
55653.0,STARLINK-5067,PAYLOAD,2023-11-21 13:42:28,14.98334658,0.0002978,69.9985,140.0092,267.0722,93.0096,0.00020117,2.308e-05,0.0,0 STARLINK-5067,1 55653U 23021AB  23325.57116045  .00002308  00000-0  20117-3 0  9993,2 55653  69.9985 140.0092 0002978 267.0722  93.0096 14.98334658 43106,6950.178,96.107,574.113,569.974,0.0
55653.0,STARLINK-5067,PAYLOAD,2023-11-21 20:07:00,14.98339673,0.0002972,69.9985,139.3359,266.9916,93.0903,0.00024864,2.876e-05,0.0,0 STARLINK-5067,1 55653U 23021AB  23325.83819771  .00002876  00000-0  24864-3 0  9991,2 55653  69.9985 139.3359 0002972 266.9916  93.0903 14.98339673 43143,6950.163,96.106,574.094,569.962,0.0
